[{"OBJECT_NAME":"ASTROSAT","OBJECT_ID":"2015-052A","EPOCH":"2026-03-09T22:10:38.920512","MEAN_MOTION":14.82299662,"ECCENTRICITY":0.00076106,"INCLINATION":5.9959,"RA_OF_ASC_NODE":149.7505,"ARG_OF_PERICENTER":54.6851,"MEAN_ANOMALY":305.3988,"EPHEMERIS_TYPE":0,"CLASSIFICATION_TYPE":"U","NORAD_CAT_ID":40930,"ELEMENT_SET_NO":999,"REV_AT_EPOCH":56507,"BSTAR":0.00020001037,"MEAN_MOTION_DOT":2.307e-5,"MEAN_MOTION_DDOT":0},{"OBJECT_NAME":"CLOUDSAT","OBJECT_ID":"2006-016A","EPOCH":"2026-03-09T23:36:20.904192","MEAN_MOTION":14.86172924,"ECCENTRICITY":0.00040939,"INCLINATION":98.4053,"RA_OF_ASC_NODE":100.731,"ARG_OF_PERICENTER":300.1653,"MEAN_ANOMALY":59.9155,"EPHEMERIS_TYPE":0,"CLASSIFICATION_TYPE":"U","NORAD_CAT_ID":29107,"ELEMENT_SET_NO":999,"REV_AT_EPOCH":5977,"BSTAR":0.00018027115,"MEAN_MOTION_DOT":1.521e-5,"MEAN_MOTION_DDOT":0}]
